{"fetched_at":"2026-03-29T16:36:15Z","count":15609,"tles":[{"name":"STARLINK-31699","line1":"1 59551U 24074T   26087.76858497  .00001603  00000+0  67727-4 0  9991","line2":"2 59551  42.9997 235.6479 0000760 275.6408  84.4357 15.27584734108936","category":"Starlink"}]}